2025-180E               
1 65263U 25180E   25242.93946757  .00005156  00000+0  30224-3 0  9993
2 65263  97.4918   9.2765 0012551 233.2210 126.7869 15.12151361  1756
ZK-1A R/B               
1 65264U 25180F   25242.94214559  .00154570  83617-5  81492-3 0  9992
2 65264  97.5768  10.1933 0204917 348.1475  11.4993 15.56377681  1804
BION-M 02               
1 65265U 25181A   25242.76089744  .00034041  00000+0  32066-3 0  9992
2 65265  96.9242 310.4465 0011309 246.2027 113.8050 15.66936356  1591
SOYUZ-2.1B R/B          
1 65266U 25181B   25243.05945791  .08686608  23735-5  20817-3 0  9996
2 65266  96.9317 311.4744 0024734   8.8386 351.3346 16.43561302  1679
2025-182A               
1 65267U 25182A   25242.94937985  .00045791  00000+0  23562-3 0  9999
2 65267  96.5862 176.6074 0013566 205.3132 154.7475 15.80942973  1509
2025-182B               
1 65268U 25182B   25242.88619172  .00044766  00000+0  23070-3 0  9993
2 65268  96.5862 176.5468 0013448 205.6616 154.3988 15.80915755  1496
2025-182C               
1 65269U 25182C   25242.94994557  .00043330  00000+0  22411-3 0  9998
2 65269  96.5862 176.6067 0013544 206.3150 153.7433 15.80839970  1505
2025-182D               
1 65270U 25182D   25242.88676010  .00045851  00000+0  23727-3 0  9995
2 65270  96.5862 176.5459 0013487 206.7802 153.2774 15.80820632  1514
STARLINK-34922          
1 65273U 25184A   25242.91668981 -.00679063  00000+0 -43305-2 0  9995
2 65273  97.5932 292.2426 0001678  89.0830 239.9265 15.78092885  2457
STARLINK-34904          
1 65274U 25184B   25242.91668981 -.00790153  00000+0 -50833-2 0  9994
2 65274  97.5930 292.2430 0001298  83.8116 247.0657 15.78187746  2454
STARLINK-34954          
1 65275U 25184C   25242.91668981 -.00873752  00000+0 -56558-2 0  9992
2 65275  97.5931 292.2437 0001487  84.2954 248.4509 15.78267388  2450
STARLINK-34968          
1 65276U 25184D   25242.91668981 -.00902777  00000+0 -58588-2 0  9998
2 65276  97.5929 292.2443 0001195  82.0484 252.6013 15.78289273  2459
STARLINK-34935          
1 65277U 25184E   25242.91668981 -.00982061  00000+0 -64092-2 0  9990
2 65277  97.5929 292.2455 0001423  95.4910 241.0246 15.78373128  2452
STARLINK-35000          
1 65278U 25184F   25242.91668981 -.01018439  00000+0 -66652-2 0  9995
2 65278  97.5929 292.2463 0001467  95.2942 243.1176 15.78408341  2454
STARLINK-35023          
1 65279U 25184G   25242.91668981 -.01066226  00000+0 -68707-2 0  9996
2 65279  97.5929 292.2474 0001509  99.1825 241.1142 15.78452614  2450
STARLINK-35001          
1 65280U 25184H   25242.91668981 -.01119277  00000+0 -72295-2 0  9990
2 65280  97.5929 292.2481 0001488 104.9427 237.2194 15.78520086  2451
STARLINK-35010          
1 65281U 25184J   25242.91668981 -.01246034  00000+0 -81181-2 0  9997
2 65281  97.5929 292.2488 0001491  85.6475 258.3738 15.78618294  2458
STARLINK-35021          
1 65282U 25184K   25242.91668981 -.01284025  00000+0 -83839-2 0  9992
2 65282  97.5928 292.2500 0001405  85.4044 260.5060 15.78659279  2404
STARLINK-35015          
1 65283U 25184L   25242.91668981 -.01350417  00000+0 -86671-2 0  9999
2 65283  97.5926 292.2504 0001557  86.9627 260.8106 15.78724738  2450
STARLINK-35006          
1 65284U 25184M   25242.91668981 -.01460222  00000+0 -94122-2 0  9996
2 65284  97.5925 292.2522 0001356  92.6701 258.8495 15.78844983  2457
STARLINK-34995          
1 65285U 25184N   25242.91668981 -.01525113  00000+0 -99057-2 0  9990
2 65285  97.5926 292.2511 0001555  84.5344 265.1419 15.78802760  2455
STARLINK-35048          
1 65286U 25184P   25242.91668981 -.01490356  00000+0 -96074-2 0  9997
2 65286  97.5927 292.2533 0001263  89.6403 263.7405 15.78903107  2400
STARLINK-35007          
1 65287U 25184Q   25242.91668981 -.01680314  00000+0 -10958-1 0  9999
2 65287  97.5926 292.2541 0001221 108.2041 247.0272 15.79032361  2390
STARLINK-35018          
1 65288U 25184R   25242.91668981 -.01578305  00000+0 -10198-1 0  9992
2 65288  97.5924 292.2544 0001441  93.0585 264.0490 15.79024717  2454
STARLINK-34845          
1 65289U 25184S   25242.91668981 -.01611275  00000+0 -10421-1 0  9996
2 65289  97.5924 292.2554 0001371  94.5802 264.3993 15.79072464  2459
STARLINK-34984          
1 65290U 25184T   25242.91668981 -.01613827  00000+0 -10425-1 0  9997
2 65290  97.5923 292.2572 0001451  81.4784 279.3789 15.79102336  2454
STARLINK-35002          
1 65291U 25184U   25242.91668981 -.01758214  00000+0 -11168-1 0  9993
2 65291  97.5925 292.2577 0001351  87.9801 276.6006 15.79234437  2452
STARLINK-35017          
1 65292U 25184V   25242.91668981 -.01730548  00000+0 -10996-1 0  9992
2 65292  97.5925 292.2574 0001394  84.6692 278.0473 15.79181937  2404
STARLINK-34951          
1 65293U 25184W   25242.91668981 -.01834543  00000+0 -11662-1 0  9994
2 65293  97.5926 292.2595 0001301  81.1454 287.1549 15.79347200  2452
STARLINK-34613          
1 65294U 25184X   25242.91668981 -.01808687  00000+0 -11492-1 0  9996
2 65294  97.5929 292.2588 0001362  81.9652 284.4463 15.79313853  2455
STARLINK-34834          
1 65295U 25184Y   25242.91668981 -.01859435  00000+0 -11805-1 0  9992
2 65295  97.5929 292.2617 0001398  77.7379 294.3195 15.79416121  2451
STARLINK-34872          
1 65296U 25184Z   25239.66670139 -.02080490  11821-2 -61826-2 0  9992
2 65296  97.5961 288.6480 0001560  98.5854  87.3039 15.92620372  1934
2025-185A               
1 65297U 25185A   25242.84877718  .00001405  00000+0  24064-3 0  9993
2 65297  97.9711 325.4935 0013085 288.5280  71.4505 14.70279192  1012
2025-185B               
1 65298U 25185B   25242.84838819  .00001411  00000+0  24123-3 0  9996
2 65298  97.9717 325.4938 0013231 286.6281  73.3473 14.70357680  1020
2025-185C               
1 65299U 25185C   25242.84843129  .00001411  00000+0  24125-3 0  9999
2 65299  97.9710 325.4936 0012607 289.0714  70.9126 14.70364831  1019
2025-185D               
1 65300U 25185D   25242.91739910  .00002453  00000+0  41677-3 0  9990
2 65300  97.9696 325.5585 0010035 279.2626  80.7445 14.70013287  1033
2025-185E               
1 65301U 25185E   25242.84803972  .00001120  00000+0  19291-3 0  9990
2 65301  97.9716 325.4950 0013332 284.9201  75.0529 14.70422021  1026
2025-185F               
1 65302U 25185F   25242.91594272  .00001125  00000+0  19345-3 0  9994
2 65302  97.9707 325.5599 0013569 284.0985  75.8713 14.70455100  1037
ELECTRON R/B            
1 65303U 25185G   25243.02530400  .03052367  23776-5  14495-2 0  9999
2 65303  97.9655 326.7065 0261332 205.8644 152.9365 15.76549092  1106
DRAGON CRS-33           
1 65304U 25186A   25242.84749716  .00011470  00000+0  20639-3 0  9996
2 65304  51.6341 297.0246 0003297 294.4566  65.6079 15.50309434   116
HULIANWANG DIGUI 10A    
1 65305U 25187A   25240.97052450 -.00000096  00000+0  34279-4 0  9991
2 65305  50.0055 198.3287 0007409 278.7673  81.2393 14.05837177   452
HULIANWANG DIGUI 10B    
1 65306U 25187B   25242.96072363 -.00000079  00000+0  44354-4 0  9994
2 65306  50.0085 190.1972 0005436 284.4742  75.5560 14.05886189   736
HULIANWANG DIGUI 10C    
1 65307U 25187C   25242.95982226 -.00000077  00000+0  45864-4 0  9997
2 65307  50.0093 190.1937 0004966 291.8875  68.1502 14.06131620   731
HULIANWANG DIGUI 10D    
1 65308U 25187D   25242.96152728 -.00000082  00000+0  43078-4 0  9996
2 65308  50.0005 190.1929 0007257 279.4621  80.5464 14.05665040   735
HULIANWANG DIGUI 10E    
1 65309U 25187E   25240.40225543 -.00000098  00000+0  33002-4 0  9993
2 65309  50.0064 200.6539 0006802 260.8140  99.1996 14.05621198   372
HULIANWANG DIGUI 10F    
1 65310U 25187F   25242.96052066 -.00000079  00000+0  44736-4 0  9991
2 65310  50.0108 190.1973 0006311 289.7424  70.2801 14.05938894   737
HULIANWANG DIGUI 10G    
1 65311U 25187G   25241.18457497 -.00000093  00000+0  36077-4 0  9997
2 65311  50.0028 197.4568 0007505 271.6553  88.3492 14.05510674   488
HULIANWANG DIGUI 10H    
1 65312U 25187H   25243.17447012 -.00000079  00000+0  44627-4 0  9995
2 65312  50.0029 189.3220 0005941 271.8826  88.1399 14.05754093   762
HULIANWANG DIGUI 10J    
1 65313U 25187J   25242.96014020 -.00000077  00000+0  45425-4 0  9996
2 65313  50.0065 190.1928 0006497 293.0183  67.0037 14.06049374   739
CZ-8A R/B               
1 65314U 25187K   25242.94305668 -.00000070  00000+0  34205-4 0  9993
2 65314  50.0058 189.4380 0116178 101.2886 260.1111 14.30458425   741
PELICAN-300A            
1 65315U 25188A   25242.93690326  .00011823  00000+0  34751-3 0  9994
2 65315  97.2524 317.5594 0003753 135.0437 225.1111 15.35251589   643
PELICAN-300B            
1 65316U 25188B   25242.93756844  .00011417  00000+0  33829-3 0  9997
2 65316  97.2565 317.5599 0004730 141.2585 218.8999 15.35002153   647
NAOS                    
1 65317U 25188C   25242.93765797  .00024296  00000+0  71589-3 0  9999
2 65317  97.2526 317.5585 0005028 141.3192 218.8412 15.35013650   640
FFLY03                  
1 65318U 25188D   25242.92732009  .00004591  00000+0  48267-3 0  9992
2 65318  97.7649 317.6802 0005234 118.7762 241.3982 14.89910915   624
2025-188E               
1 65319U 25188E   25242.92774268  .00002522  00000+0  26880-3 0  9995
2 65319  97.7630 317.6773 0005601 111.4237 248.7578 14.89749568   612
FFLY01                  
1 65320U 25188F   25242.92839216  .00002307  00000+0  24784-3 0  9994
2 65320  97.7688 317.6831 0004470  98.8861 261.2863 14.89512646   618
FFLY02                  
1 65321U 25188G   25242.92871105  .00004145  00000+0  44181-3 0  9993
2 65321  97.7681 317.6819 0004596  92.3274 267.8470 14.89402998   618
2025-188H               
1 65322U 25188H   25242.92892613  .00002459  00000+0  26509-3 0  9991
2 65322  97.7676 317.6808 0004829  89.3697 270.8074 14.89318530   617
